{
  "type": "FeatureCollection",
  "name": "sample_parcels",
  "crs": {
    "type": "name",
    "properties": {
      "name": "urn:ogc:def:crs:EPSG::4326"
    }
  },
  "metadata": {
    "source": "DEMO_DATA",
    "description": "Synthetic demonstration parcel data. NOT a real government cadastral record.",
    "geographic_context": "New Delhi, India (India Gate vicinity)",
    "created": "2026-08-29"
  },
  "features": [
    {
      "type": "Feature",
      "properties": {
        "parcel_id": "P001",
        "ulpin": null,
        "survey_number": "DEMO-SN-001",
        "area": 2500.0,
        "ror_id": "ROR001",
        "crs": "EPSG:4326",
        "source": "DEMO_DATA"
      },
      "geometry": {
        "type": "Polygon",
        "coordinates": [
          [
            [77.2295, 28.6129],
            [77.2305, 28.6129],
            [77.2305, 28.6139],
            [77.2295, 28.6139],
            [77.2295, 28.6129]
          ]
        ]
      }
    }
  ]
}
