{
  "type": "FeatureCollection",
  "name": "sample_underground_assets",
  "metadata": {
    "source": "DEMO_DATA",
    "description": "Synthetic underground infrastructure assets for demonstration.",
    "geographic_context": "New Delhi, India",
    "created": "2026-08-29"
  },
  "features": [
    {
      "type": "Feature",
      "properties": {
        "asset_id": "WATER_PIPE_001",
        "parcel_id": "P001",
        "type": "water_pipeline",
        "depth": -2.0,
        "source": "DEMO_DATA"
      },
      "geometry": {
        "type": "LineString",
        "coordinates": [
          [77.2290, 28.6134],
          [77.2310, 28.6134]
        ]
      }
    },
    {
      "type": "Feature",
      "properties": {
        "asset_id": "SEWER_001",
        "parcel_id": "P001",
        "type": "sewer",
        "depth": -3.5,
        "source": "DEMO_DATA"
      },
      "geometry": {
        "type": "LineString",
        "coordinates": [
          [77.2300, 28.6125],
          [77.2300, 28.6142]
        ]
      }
    },
    {
      "type": "Feature",
      "properties": {
        "asset_id": "ELEC_001",
        "parcel_id": "P001",
        "type": "electricity_cable",
        "depth": -1.0,
        "source": "DEMO_DATA"
      },
      "geometry": {
        "type": "LineString",
        "coordinates": [
          [77.2293, 28.6131],
          [77.2307, 28.6137]
        ]
      }
    }
  ]
}
